NORAD_CAT_ID,OBJECT_NAME,OBJECT_TYPE,EPOCH,MEAN_MOTION,ECCENTRICITY,INCLINATION,RA_OF_ASC_NODE,ARG_OF_PERICENTER,MEAN_ANOMALY,BSTAR,MEAN_MOTION_DOT,MEAN_MOTION_DDOT,TLE_LINE0,TLE_LINE1,TLE_LINE2,SEMIMAJOR_AXIS,PERIOD,APOGEE,PERIGEE,DECAYED
50843.0,STARLINK-3325,PAYLOAD,2024-03-02 18:39:21,15.08840656,0.0001331,53.2165,247.2491,92.994,267.1204,8.2496e-05,1.025e-05,0.0,0 STARLINK-3325,1 50843U 22001AS  24062.77733293  .00001025  00000-0  82496-4 0  9991,2 50843  53.2165 247.2491 0001331  92.9940 267.1204 15.08840656120215,6917.878,95.438,540.664,538.823,0.0
50843.0,STARLINK-3325,PAYLOAD,2024-03-03 12:08:36,15.08839927,0.0001474,53.2153,243.9766,98.9222,261.1937,-1.3907e-05,-5.09e-06,0.0,0 STARLINK-3325,1 50843U 22001AS  24063.50597600 -.00000509  00000-0 -13907-4 0  9992,2 50843  53.2153 243.9766 0001474  98.9222 261.1937 15.08839927119121,6917.881,95.438,540.765,538.726,0.0
50843.0,STARLINK-3325,PAYLOAD,2024-03-03 18:30:08,15.08839103,0.0001377,53.2157,242.7876,95.3496,264.7653,5.0226e-06,-2.08e-06,0.0,0 STARLINK-3325,1 50843U 22001AS  24063.77093543 -.00000208  00000-0  50226-5 0  9999,2 50843  53.2157 242.7876 0001377  95.3496 264.7653 15.08839103119164,6917.883,95.438,540.701,538.796,0.0
50843.0,STARLINK-3325,PAYLOAD,2024-03-04 11:59:22,15.0884523,0.0001436,53.2164,239.5146,102.2343,257.8811,0.00016686,2.369e-05,0.0,0 STARLINK-3325,1 50843U 22001AS  24064.49956570  .00002369  00000-0  16686-3 0  9996,2 50843  53.2164 239.5146 0001436 102.2343 257.8811 15.08845230120474,6917.864,95.437,540.723,538.736,0.0
50843.0,STARLINK-3325,PAYLOAD,2024-03-04 18:20:54,15.08857812,0.0001296,53.2163,238.3254,91.2084,268.9057,0.00026384,3.916e-05,0.0,0 STARLINK-3325,1 50843U 22001AS  24064.76451426  .00003916  00000-0  26384-3 0  9991,2 50843  53.2163 238.3254 0001296  91.2084 268.9057 15.08857812120512,6917.826,95.436,540.587,538.794,0.0
50843.0,STARLINK-3325,PAYLOAD,2024-03-05 11:50:10,15.08837107,0.0001327,53.2173,235.0534,94.423,265.6913,6.3007e-05,7.15e-06,0.0,0 STARLINK-3325,1 50843U 22001AS  24065.49317279  .00000715  00000-0  63007-4 0  9997,2 50843  53.2173 235.0534 0001327  94.4230 265.6913 15.08837107119429,6917.889,95.438,540.672,538.836,0.0
50843.0,STARLINK-3325,PAYLOAD,2024-03-05 18:11:42,15.08837015,0.0001182,53.2157,233.865,95.6834,264.4293,2.0069e-07,-2.85e-06,0.0,0 STARLINK-3325,1 50843U 22001AS  24065.75813165 -.00000285  00000-0  20069-6 0  9997,2 50843  53.2157 233.8650 0001182  95.6834 264.4293 15.08837015120662,6917.89,95.438,540.572,538.937,0.0
50843.0,STARLINK-3325,PAYLOAD,2024-03-07 03:34:48,15.08840375,0.0001194,53.2155,227.619,77.6592,282.4534,-6.6814e-05,-1.351e-05,0.0,0 STARLINK-3325,1 50843U 22001AS  24067.14917130 -.00001351  00000-0 -66814-4 0  9991,2 50843  53.2155 227.6190 0001194  77.6592 282.4534 15.08840375120878,6917.879,95.438,540.57,538.918,0.0
50843.0,STARLINK-3325,PAYLOAD,2024-03-07 14:42:32,15.08814807,0.0001106,53.2158,225.542,98.0021,262.1096,-8.4581e-05,-1.633e-05,0.0,0 STARLINK-3325,1 50843U 22001AS  24067.61287063 -.00001633  00000-0 -84581-4 0  9992,2 50843  53.2158 225.5420 0001106  98.0021 262.1096 15.08814807119744,6917.957,95.439,540.588,539.057,0.0
50843.0,STARLINK-3325,PAYLOAD,2024-03-08 09:47:09,15.08839139,0.0001655,53.2166,221.9712,118.0986,242.0173,3.1606e-05,2.15e-06,0.0,0 STARLINK-3325,1 50843U 22001AS  24068.40774780  .00000215  00000-0  31606-4 0  9990,2 50843  53.2166 221.9712 0001655 118.0986 242.0173 15.08839139121065,6917.883,95.438,540.893,538.603,0.0
50843.0,STARLINK-3325,PAYLOAD,2024-03-09 09:37:56,15.08854394,0.0001378,53.2158,217.5113,83.569,276.5459,0.00066117,0.00010254,0.0,0 STARLINK-3325,1 50843U 22001AS  24069.40134746  .00010254  00000-0  66117-3 0  9991,2 50843  53.2158 217.5113 0001378  83.5690 276.5459 15.08854394120015,6917.836,95.437,540.655,538.748,0.0
50843.0,STARLINK-3325,PAYLOAD,2024-03-10 12:39:29,15.08840227,0.000165,53.2128,212.4525,102.1588,257.9589,-0.00012817,-2.327e-05,0.0,0 STARLINK-3325,1 50843U 22001AS  24070.52742174 -.00002327  00000-0 -12817-3 0  9998,2 50843  53.2128 212.4525 0001650 102.1588 257.9589 15.08840227121388,6917.88,95.438,540.886,538.603,0.0
50843.0,STARLINK-3325,PAYLOAD,2024-03-10 19:01:01,15.08842613,0.000165,53.2141,211.2639,97.1345,262.9835,1.2744e-05,-8.5e-07,0.0,0 STARLINK-3325,1 50843U 22001AS  24070.79238255 -.00000085  00000-0  12744-4 0  9995,2 50843  53.2141 211.2639 0001650  97.1345 262.9835 15.08842613120223,6917.872,95.437,540.879,538.596,0.0
50843.0,STARLINK-3325,PAYLOAD,2024-03-11 12:30:16,15.08849285,0.0001567,53.2152,207.9924,98.5128,261.6041,0.00033924,5.116e-05,0.0,0 STARLINK-3325,1 50843U 22001AS  24071.52102087  .00005116  00000-0  33924-3 0  9991,2 50843  53.2152 207.9924 0001567  98.5128 261.6041 15.08849285120334,6917.852,95.437,540.801,538.633,0.0
50843.0,STARLINK-3325,PAYLOAD,2024-03-11 18:51:48,15.08852534,0.0001652,53.2154,206.8029,100.1062,260.0116,0.00047637,7.304e-05,0.0,0 STARLINK-3325,1 50843U 22001AS  24071.78597993  .00007304  00000-0  47637-3 0  9990,2 50843  53.2154 206.8029 0001652 100.1062 260.0116 15.08852534121576,6917.842,95.437,540.85,538.564,0.0
50843.0,STARLINK-3325,PAYLOAD,2024-03-12 12:21:03,15.08842032,0.0001384,53.2135,203.529,116.8269,243.2865,0.00022729,3.331e-05,0.0,0 STARLINK-3325,1 50843U 22001AS  24072.51462112  .00003331  00000-0  22729-3 0  9997,2 50843  53.2135 203.5290 0001384 116.8269 243.2865 15.08842032121682,6917.874,95.437,540.697,538.782,0.0
50843.0,STARLINK-3325,PAYLOAD,2024-03-12 15:31:49,15.08845713,0.0001426,53.2156,202.9375,94.5125,265.603,0.0002054,2.983e-05,0.0,0 STARLINK-3325,1 50843U 22001AS  24072.64710064  .00002983  00000-0  20540-3 0  9994,2 50843  53.2156 202.9375 0001426  94.5125 265.6030 15.08845713120503,6917.863,95.437,540.714,538.741,0.0
50843.0,STARLINK-3325,PAYLOAD,2024-03-13 12:11:50,15.08844751,0.0001364,53.216,199.0738,95.7402,264.3746,0.00011706,1.576e-05,0.0,0 STARLINK-3325,1 50843U 22001AS  24073.50821982  .00001576  00000-0  11706-3 0  9993,2 50843  53.2160 199.0738 0001364  95.7402 264.3746 15.08844751120634,6917.866,95.437,540.674,538.787,0.0
50843.0,STARLINK-3325,PAYLOAD,2024-03-14 12:02:37,15.0884623,0.0001383,53.2169,194.6144,96.4102,263.7048,0.00015512,2.182e-05,0.0,0 STARLINK-3325,1 50843U 22001AS  24074.50181784  .00002182  00000-0  15512-3 0  9996,2 50843  53.2169 194.6144 0001383  96.4102 263.7048 15.08846230121982,6917.861,95.437,540.683,538.77,0.0
50843.0,STARLINK-3325,PAYLOAD,2024-03-15 11:53:24,15.08838478,0.0001374,53.2162,190.1534,86.9524,273.1625,-5.3971e-06,-3.74e-06,0.0,0 STARLINK-3325,1 50843U 22001AS  24075.49542081 -.00000374  00000-0 -53971-5 0  9992,2 50843  53.2162 190.1534 0001374  86.9524 273.1625 15.08838478122130,6917.885,95.438,540.701,538.8,0.0
50843.0,STARLINK-3325,PAYLOAD,2024-03-15 16:39:33,15.08840034,0.0001348,53.2155,189.2609,76.5093,283.6049,3.1659e-05,2.16e-06,0.0,0 STARLINK-3325,1 50843U 22001AS  24075.69414170  .00000216  00000-0  31659-4 0  9992,2 50843  53.2155 189.2609 0001348  76.5093 283.6049 15.08840034120967,6917.88,95.438,540.678,538.813,0.0
50843.0,STARLINK-3325,PAYLOAD,2024-03-16 13:19:35,15.08834787,0.0001648,53.2163,185.3981,66.5697,293.5468,6.7354e-05,7.84e-06,0.0,0 STARLINK-3325,1 50843U 22001AS  24076.55527087  .00000784  00000-0  67354-4 0  9991,2 50843  53.2163 185.3981 0001648  66.5697 293.5468 15.08834787122299,6917.896,95.438,540.901,538.621,0.0
50843.0,STARLINK-3325,PAYLOAD,2024-03-16 14:54:57,15.08842301,0.0001446,53.2176,185.098,71.3486,288.7663,0.00013861,1.919e-05,0.0,0 STARLINK-3325,1 50843U 22001AS  24076.62150418  .00001919  00000-0  13861-3 0  9993,2 50843  53.2176 185.0980 0001446  71.3486 288.7663 15.08842301122301,6917.873,95.437,540.739,538.738,0.0
50843.0,STARLINK-3325,PAYLOAD,2024-03-17 13:10:21,15.08848468,0.0001736,53.2179,180.9385,63.7387,296.3784,6.6502e-05,7.71e-06,0.0,0 STARLINK-3325,1 50843U 22001AS  24077.54886374  .00000771  00000-0  66502-4 0  9998,2 50843  53.2179 180.9385 0001736  63.7387 296.3784 15.08848468121245,6917.855,95.437,540.92,538.519,0.0
50843.0,STARLINK-3325,PAYLOAD,2024-03-18 11:25:47,15.08804124,0.0001888,53.2188,176.7773,57.5176,302.5999,0.00054402,8.372e-05,0.0,0 STARLINK-3325,1 50843U 22001AS  24078.47624260  .00008372  00000-0  54402-3 0  9995,2 50843  53.2188 176.7773 0001888  57.5176 302.5999 15.08804124122581,6917.99,95.44,541.161,538.549,0.0
50843.0,STARLINK-3325,PAYLOAD,2024-03-19 11:16:32,15.08853813,0.0001538,53.2199,172.3144,90.8206,269.2962,0.00011536,1.549e-05,0.0,0 STARLINK-3325,1 50843U 22001AS  24079.46981885  .00001549  00000-0  11536-3 0  9994,2 50843  53.2199 172.3144 0001538  90.8206 269.2962 15.08853813121535,6917.838,95.437,540.767,538.639,0.0
50843.0,STARLINK-3325,PAYLOAD,2024-03-19 12:51:55,15.08855056,0.0001695,53.2174,172.0153,93.6976,266.421,0.00020912,3.043e-05,0.0,0 STARLINK-3325,1 50843U 22001AS  24079.53605961  .00003043  00000-0  20912-3 0  9999,2 50843  53.2174 172.0153 0001695  93.6976 266.4210 15.08855056122744,6917.834,95.437,540.872,538.527,0.0
50843.0,STARLINK-3325,PAYLOAD,2024-03-20 09:31:57,15.08832971,0.0001519,53.2183,168.1484,100.762,259.3544,-5.5305e-05,-1.168e-05,0.0,0 STARLINK-3325,1 50843U 22001AS  24080.39719256 -.00001168  00000-0 -55305-4 0  9991,2 50843  53.2183 168.1484 0001519 100.7620 259.3544 15.08832971122874,6917.902,95.438,540.818,538.716,0.0
50843.0,STARLINK-3325,PAYLOAD,2024-03-20 12:42:43,15.08834012,0.0001574,53.217,167.5522,107.7435,252.3729,-2.6125e-05,-7.04e-06,0.0,0 STARLINK-3325,1 50843U 22001AS  24080.52967212 -.00000704  00000-0 -26125-4 0  9996,2 50843  53.2170 167.5522 0001574 107.7435 252.3729 15.08834012121693,6917.899,95.438,540.853,538.675,0.0
50843.0,STARLINK-3325,PAYLOAD,2024-03-20 22:15:02,15.08838541,0.0001569,53.2174,165.7719,108.241,251.8753,5.0782e-05,5.2e-06,0.0,0 STARLINK-3325,1 50843U 22001AS  24080.92711158  .00000520  00000-0  50782-4 0  9996,2 50843  53.2174 165.7719 0001569 108.2410 251.8753 15.08838541121757,6917.885,95.438,540.835,538.664,0.0
